<?xml version="1.0" encoding="UTF-8"?>
<ndm xmlns:xsi="http://www.w3.org/2001/XMLSchema-instance" xsi:noNamespaceSchemaLocation="https://sanaregistry.org/r/ndmxml_unqualified/ndmxml-2.0.0-master-2.0.xsd">
<omm id="CCSDS_OMM_VERS" version="2.0">
<header><CREATION_DATE/><ORIGINATOR/></header><body><segment><metadata><OBJECT_NAME>ONEWEB-0020</OBJECT_NAME><OBJECT_ID>2020-008C</OBJECT_ID><CENTER_NAME>EARTH</CENTER_NAME><REF_FRAME>TEME</REF_FRAME><TIME_SYSTEM>UTC</TIME_SYSTEM><MEAN_ELEMENT_THEORY>SGP4</MEAN_ELEMENT_THEORY></metadata><data><meanElements><EPOCH>2024-11-29T18:20:33.760896</EPOCH><MEAN_MOTION>13.10376913</MEAN_MOTION><ECCENTRICITY>.0001294</ECCENTRICITY><INCLINATION>87.8897</INCLINATION><RA_OF_ASC_NODE>148.6632</RA_OF_ASC_NODE><ARG_OF_PERICENTER>92.4840</ARG_OF_PERICENTER><MEAN_ANOMALY>267.6435</MEAN_ANOMALY></meanElements><tleParameters><EPHEMERIS_TYPE>0</EPHEMERIS_TYPE><CLASSIFICATION_TYPE>U</CLASSIFICATION_TYPE><NORAD_CAT_ID>45133</NORAD_CAT_ID><ELEMENT_SET_NO>999</ELEMENT_SET_NO><REV_AT_EPOCH>23442</REV_AT_EPOCH><BSTAR>-.71409E-3</BSTAR><MEAN_MOTION_DOT>-.237E-5</MEAN_MOTION_DOT><MEAN_MOTION_DDOT>0</MEAN_MOTION_DDOT></tleParameters></data></segment></body></omm>
<omm id="CCSDS_OMM_VERS" version="2.0">
<header><CREATION_DATE/><ORIGINATOR/></header><body><segment><metadata><OBJECT_NAME>ONEWEB-0021</OBJECT_NAME><OBJECT_ID>2020-008D</OBJECT_ID><CENTER_NAME>EARTH</CENTER_NAME><REF_FRAME>TEME</REF_FRAME><TIME_SYSTEM>UTC</TIME_SYSTEM><MEAN_ELEMENT_THEORY>SGP4</MEAN_ELEMENT_THEORY></metadata><data><meanElements><EPOCH>2024-11-29T18:42:05.906592</EPOCH><MEAN_MOTION>13.10373939</MEAN_MOTION><ECCENTRICITY>.0001575</ECCENTRICITY><INCLINATION>87.8895</INCLINATION><RA_OF_ASC_NODE>148.6833</RA_OF_ASC_NODE><ARG_OF_PERICENTER>84.8376</ARG_OF_PERICENTER><MEAN_ANOMALY>275.2931</MEAN_ANOMALY></meanElements><tleParameters><EPHEMERIS_TYPE>0</EPHEMERIS_TYPE><CLASSIFICATION_TYPE>U</CLASSIFICATION_TYPE><NORAD_CAT_ID>45134</NORAD_CAT_ID><ELEMENT_SET_NO>999</ELEMENT_SET_NO><REV_AT_EPOCH>23473</REV_AT_EPOCH><BSTAR>.12547E-2</BSTAR><MEAN_MOTION_DOT>.451E-5</MEAN_MOTION_DOT><MEAN_MOTION_DDOT>0</MEAN_MOTION_DDOT></tleParameters></data></segment></body></omm>
<omm id="CCSDS_OMM_VERS" version="2.0">
<header><CREATION_DATE/><ORIGINATOR/></header><body><segment><metadata><OBJECT_NAME>ONEWEB-0023</OBJECT_NAME><OBJECT_ID>2020-008F</OBJECT_ID><CENTER_NAME>EARTH</CENTER_NAME><REF_FRAME>TEME</REF_FRAME><TIME_SYSTEM>UTC</TIME_SYSTEM><MEAN_ELEMENT_THEORY>SGP4</MEAN_ELEMENT_THEORY></metadata><data><meanElements><EPOCH>2024-11-29T19:00:03.461472</EPOCH><MEAN_MOTION>13.10371927</MEAN_MOTION><ECCENTRICITY>.0001679</ECCENTRICITY><INCLINATION>87.8886</INCLINATION><RA_OF_ASC_NODE>148.6689</RA_OF_ASC_NODE><ARG_OF_PERICENTER>98.8754</ARG_OF_PERICENTER><MEAN_ANOMALY>261.2563</MEAN_ANOMALY></meanElements><tleParameters><EPHEMERIS_TYPE>0</EPHEMERIS_TYPE><CLASSIFICATION_TYPE>U</CLASSIFICATION_TYPE><NORAD_CAT_ID>45136</NORAD_CAT_ID><ELEMENT_SET_NO>999</ELEMENT_SET_NO><REV_AT_EPOCH>23416</REV_AT_EPOCH><BSTAR>.17773E-2</BSTAR><MEAN_MOTION_DOT>.633E-5</MEAN_MOTION_DOT><MEAN_MOTION_DDOT>0</MEAN_MOTION_DDOT></tleParameters></data></segment></body></omm>
<omm id="CCSDS_OMM_VERS" version="2.0">
<header><CREATION_DATE/><ORIGINATOR/></header><body><segment><metadata><OBJECT_NAME>ONEWEB-0024</OBJECT_NAME><OBJECT_ID>2020-008G</OBJECT_ID><CENTER_NAME>EARTH</CENTER_NAME><REF_FRAME>TEME</REF_FRAME><TIME_SYSTEM>UTC</TIME_SYSTEM><MEAN_ELEMENT_THEORY>SGP4</MEAN_ELEMENT_THEORY></metadata><data><meanElements><EPOCH>2024-11-29T18:18:10.445760</EPOCH><MEAN_MOTION>13.10376344</MEAN_MOTION><ECCENTRICITY>.0001462</ECCENTRICITY><INCLINATION>87.8886</INCLINATION><RA_OF_ASC_NODE>148.6451</RA_OF_ASC_NODE><ARG_OF_PERICENTER>86.8529</ARG_OF_PERICENTER><MEAN_ANOMALY>273.2765</MEAN_ANOMALY></meanElements><tleParameters><EPHEMERIS_TYPE>0</EPHEMERIS_TYPE><CLASSIFICATION_TYPE>U</CLASSIFICATION_TYPE><NORAD_CAT_ID>45137</NORAD_CAT_ID><ELEMENT_SET_NO>999</ELEMENT_SET_NO><REV_AT_EPOCH>23432</REV_AT_EPOCH><BSTAR>-.84983E-3</BSTAR><MEAN_MOTION_DOT>-.284E-5</MEAN_MOTION_DOT><MEAN_MOTION_DDOT>0</MEAN_MOTION_DDOT></tleParameters></data></segment></body></omm>
<omm id="CCSDS_OMM_VERS" version="2.0">
<header><CREATION_DATE/><ORIGINATOR/></header><body><segment><metadata><OBJECT_NAME>ONEWEB-0025</OBJECT_NAME><OBJECT_ID>2020-008H</OBJECT_ID><CENTER_NAME>EARTH</CENTER_NAME><REF_FRAME>TEME</REF_FRAME><TIME_SYSTEM>UTC</TIME_SYSTEM><MEAN_ELEMENT_THEORY>SGP4</MEAN_ELEMENT_THEORY></metadata><data><meanElements><EPOCH>2024-11-29T18:44:31.462080</EPOCH><MEAN_MOTION>13.10376062</MEAN_MOTION><ECCENTRICITY>.0001968</ECCENTRICITY><INCLINATION>87.8887</INCLINATION><RA_OF_ASC_NODE>148.6422</RA_OF_ASC_NODE><ARG_OF_PERICENTER>82.3445</ARG_OF_PERICENTER><MEAN_ANOMALY>277.7905</MEAN_ANOMALY></meanElements><tleParameters><EPHEMERIS_TYPE>0</EPHEMERIS_TYPE><CLASSIFICATION_TYPE>U</CLASSIFICATION_TYPE><NORAD_CAT_ID>45138</NORAD_CAT_ID><ELEMENT_SET_NO>999</ELEMENT_SET_NO><REV_AT_EPOCH>23465</REV_AT_EPOCH><BSTAR>.15021E-2</BSTAR><MEAN_MOTION_DOT>.537E-5</MEAN_MOTION_DOT><MEAN_MOTION_DDOT>0</MEAN_MOTION_DDOT></tleParameters></data></segment></body></omm>
<omm id="CCSDS_OMM_VERS" version="2.0">
<header><CREATION_DATE/><ORIGINATOR/></header><body><segment><metadata><OBJECT_NAME>ONEWEB-0026</OBJECT_NAME><OBJECT_ID>2020-008J</OBJECT_ID><CENTER_NAME>EARTH</CENTER_NAME><REF_FRAME>TEME</REF_FRAME><TIME_SYSTEM>UTC</TIME_SYSTEM><MEAN_ELEMENT_THEORY>SGP4</MEAN_ELEMENT_THEORY></metadata><data><meanElements><EPOCH>2024-11-29T17:09:39.025728</EPOCH><MEAN_MOTION>13.11415491</MEAN_MOTION><ECCENTRICITY>.0001312</ECCENTRICITY><INCLINATION>87.8894</INCLINATION><RA_OF_ASC_NODE>133.5318</RA_OF_ASC_NODE><ARG_OF_PERICENTER>96.6074</ARG_OF_PERICENTER><MEAN_ANOMALY>263.5203</MEAN_ANOMALY></meanElements><tleParameters><EPHEMERIS_TYPE>0</EPHEMERIS_TYPE><CLASSIFICATION_TYPE>U</CLASSIFICATION_TYPE><NORAD_CAT_ID>45139</NORAD_CAT_ID><ELEMENT_SET_NO>999</ELEMENT_SET_NO><REV_AT_EPOCH>23712</REV_AT_EPOCH><BSTAR>-.1192E-2</BSTAR><MEAN_MOTION_DOT>-.41E-5</MEAN_MOTION_DOT><MEAN_MOTION_DDOT>0</MEAN_MOTION_DDOT></tleParameters></data></segment></body></omm>
<omm id="CCSDS_OMM_VERS" version="2.0">
<header><CREATION_DATE/><ORIGINATOR/></header><body><segment><metadata><OBJECT_NAME>ONEWEB-0028</OBJECT_NAME><OBJECT_ID>2020-008K</OBJECT_ID><CENTER_NAME>EARTH</CENTER_NAME><REF_FRAME>TEME</REF_FRAME><TIME_SYSTEM>UTC</TIME_SYSTEM><MEAN_ELEMENT_THEORY>SGP4</MEAN_ELEMENT_THEORY></metadata><data><meanElements><EPOCH>2024-11-29T21:34:36.311232</EPOCH><MEAN_MOTION>13.11415393</MEAN_MOTION><ECCENTRICITY>.0002047</ECCENTRICITY><INCLINATION>87.8884</INCLINATION><RA_OF_ASC_NODE>133.5284</RA_OF_ASC_NODE><ARG_OF_PERICENTER>87.6158</ARG_OF_PERICENTER><MEAN_ANOMALY>272.5204</MEAN_ANOMALY></meanElements><tleParameters><EPHEMERIS_TYPE>0</EPHEMERIS_TYPE><CLASSIFICATION_TYPE>U</CLASSIFICATION_TYPE><NORAD_CAT_ID>45140</NORAD_CAT_ID><ELEMENT_SET_NO>999</ELEMENT_SET_NO><REV_AT_EPOCH>23466</REV_AT_EPOCH><BSTAR>.16918E-2</BSTAR><MEAN_MOTION_DOT>.612E-5</MEAN_MOTION_DOT><MEAN_MOTION_DDOT>0</MEAN_MOTION_DDOT></tleParameters></data></segment></body></omm>
<omm id="CCSDS_OMM_VERS" version="2.0">
<header><CREATION_DATE/><ORIGINATOR/></header><body><segment><metadata><OBJECT_NAME>ONEWEB-0032</OBJECT_NAME><OBJECT_ID>2020-008L</OBJECT_ID><CENTER_NAME>EARTH</CENTER_NAME><REF_FRAME>TEME</REF_FRAME><TIME_SYSTEM>UTC</TIME_SYSTEM><MEAN_ELEMENT_THEORY>SGP4</MEAN_ELEMENT_THEORY></metadata><data><meanElements><EPOCH>2024-11-29T17:16:02.754912</EPOCH><MEAN_MOTION>13.10370214</MEAN_MOTION><ECCENTRICITY>.0001739</ECCENTRICITY><INCLINATION>87.8874</INCLINATION><RA_OF_ASC_NODE>148.7029</RA_OF_ASC_NODE><ARG_OF_PERICENTER>88.5759</ARG_OF_PERICENTER><MEAN_ANOMALY>271.5567</MEAN_ANOMALY></meanElements><tleParameters><EPHEMERIS_TYPE>0</EPHEMERIS_TYPE><CLASSIFICATION_TYPE>U</CLASSIFICATION_TYPE><NORAD_CAT_ID>45141</NORAD_CAT_ID><ELEMENT_SET_NO>999</ELEMENT_SET_NO><REV_AT_EPOCH>23437</REV_AT_EPOCH><BSTAR>.15429E-2</BSTAR><MEAN_MOTION_DOT>.551E-5</MEAN_MOTION_DOT><MEAN_MOTION_DDOT>0</MEAN_MOTION_DDOT></tleParameters></data></segment></body></omm>

</ndm>
