ONEWEB-0020             
1 45133U 20008C   24334.76427964 -.00000237  00000+0 -71409-3 0  9994
2 45133  87.8897 148.6632 0001294  92.4840 267.6435 13.10376913234420
ONEWEB-0021             
1 45134U 20008D   24334.77923503  .00000451  00000+0  12547-2 0  9999
2 45134  87.8895 148.6833 0001575  84.8376 275.2931 13.10373939234738
ONEWEB-0023             
1 45136U 20008F   24334.79170673  .00000633  00000+0  17773-2 0  9993
2 45136  87.8886 148.6689 0001679  98.8754 261.2563 13.10371927234167
ONEWEB-0024             
1 45137U 20008G   24334.76262090 -.00000284  00000+0 -84983-3 0  9998
2 45137  87.8886 148.6451 0001462  86.8529 273.2765 13.10376344234325
ONEWEB-0025             
1 45138U 20008H   24334.78091970  .00000537  00000+0  15021-2 0  9993
2 45138  87.8887 148.6422 0001968  82.3445 277.7905 13.10376062234652
ONEWEB-0026             
1 45139U 20008J   24334.71503502 -.00000410  00000+0 -11920-2 0  9992
2 45139  87.8894 133.5318 0001312  96.6074 263.5203 13.11415491237127
ONEWEB-0028             
1 45140U 20008K   24334.89903138  .00000612  00000+0  16918-2 0  9996
2 45140  87.8884 133.5284 0002047  87.6158 272.5204 13.11415393234667
ONEWEB-0032             
1 45141U 20008L   24334.71947633  .00000551  00000+0  15429-2 0  9994
2 45141  87.8874 148.7029 0001739  88.5759 271.5567 13.10370214234376
